CTC1_L_00066016-03
1 15854U 23995QK  26037.47800926  .00000000  00000+0  00000-0 0  9994
2 15854  90.0000 180.0000 0000000   0.0000   0.0000 14.98994923    12
CTC1_L_00066016-04
1 15855U 23226WD  26037.47800926  .00000000  00000+0  00000-0 0  9992
2 15855  90.0000 180.0000 0000000   0.0000  90.0000 14.98994923    12
CTC1_L_00066017-01
1 15856U 25348KB  26037.47800926  .00000000  00000+0  00000-0 0  9990
2 15856  90.0000 192.0000 0000000   0.0000 192.0000 14.98994923    19
CTC1_L_00066017-02
1 15857U 22688XI  26037.47800926  .00000000  00000+0  00000-0 0  9995
2 15857  90.0000 192.0000 0000000   0.0000 282.0000 14.98994923    10
CTC1_L_00066017-03
1 15858U 22164CJ  26037.47800926  .00000000  00000+0  00000-0 0  9995
2 15858  90.0000 192.0000 0000000   0.0000  12.0000 14.98994923    12
CTC1_L_00066017-04
1 15859U 26714LY  26037.47800926  .00000000  00000+0  00000-0 0  9991
2 15859  90.0000 192.0000 0000000   0.0000 102.0000 14.98994923    13
CTC1_L_00066018-01
1 15860U 25195LS  26037.47800926  .00000000  00000+0  00000-0 0  9995
2 15860  90.0000 204.0000 0000000   0.0000 204.0000 14.98994923    12
CTC1_L_00066018-02
1 15861U 22033KB  26037.47800926  .00000000  00000+0  00000-0 0  9994
2 15861  90.0000 204.0000 0000000   0.0000 294.0000 14.98994923    12
CTC1_L_00066018-03
1 15862U 24803SP  26037.47800926  .00000000  00000+0  00000-0 0  9992
2 15862  90.0000 204.0000 0000000   0.0000  24.0000 14.98994923    14
CTC1_L_00066018-04
1 15863U 23946ID  26037.47800926  .00000000  00000+0  00000-0 0  9990
2 15863  90.0000 204.0000 0000000   0.0000 114.0000 14.98994923    15
CTC1_L_00066019-01
1 15864U 23872QO  26037.47800926  .00000000  00000+0  00000-0 0  9999
2 15864  90.0000 216.0000 0000000   0.0000 216.0000 14.98994923    12
CTC1_L_00066019-02
1 15865U 25845NA  26037.47800926  .00000000  00000+0  00000-0 0  9992
2 15865  90.0000 216.0000 0000000   0.0000 306.0000 14.98994923    13
CTC1_L_00066019-03
1 15866U 26150SF  26037.47800926  .00000000  00000+0  00000-0 0  9993
2 15866  90.0000 216.0000 0000000   0.0000  36.0000 14.98994923    14
CTC1_L_00066019-04
1 15867U 23346NF  26037.47800926  .00000000  00000+0  00000-0 0  9998
2 15867  90.0000 216.0000 0000000   0.0000 126.0000 14.98994923    15
CTC1_L_00066020-01
1 15868U 22366NM  26037.47800926  .00000000  00000+0  00000-0 0  9990
2 15868  90.0000 228.0000 0000000   0.0000 228.0000 14.98994923    12
CTC1_L_00066020-02
1 15869U 23886MN  26037.47800926  .00000000  00000+0  00000-0 0  9999
2 15869  90.0000 228.0000 0000000   0.0000 318.0000 14.98994923    13
CTC1_L_00066020-03
1 15870U 22038DB  26037.47800926  .00000000  00000+0  00000-0 0  9999
2 15870  90.0000 228.0000 0000000   0.0000  48.0000 14.98994923    15
CTC1_L_00066020-04
1 15871U 26853TV  26037.47800926  .00000000  00000+0  00000-0 0  9999
2 15871  90.0000 228.0000 0000000   0.0000 138.0000 14.98994923    16
CTC1_L_00066021-01
1 15872U 26190TY  26037.47800926  .00000000  00000+0  00000-0 0  9994
2 15872  90.0000 240.0000 0000000   0.0000 240.0000 14.98994923    15
CTC1_L_00066021-02
1 15873U 23488KY  26037.47800926  .00000000  00000+0  00000-0 0  9992
2 15873  90.0000 240.0000 0000000   0.0000 330.0000 14.98994923    16
CTC1_L_00066021-03
1 15874U 24488EH  26037.47800926  .00000000  00000+0  00000-0 0  9994
2 15874  90.0000 240.0000 0000000   0.0000  60.0000 14.98994923    17
CTC1_L_00066021-04
1 15875U 26743EN  26037.47800926  .00000000  00000+0  00000-0 0  9991
2 15875  90.0000 240.0000 0000000   0.0000 150.0000 14.98994923    18
CTC1_L_00066022-01
1 15876U 24125ZL  26037.47800926  .00000000  00000+0  00000-0 0  9994
2 15876  90.0000 252.0000 0000000   0.0000 252.0000 14.98994923    15
CTC1_L_00066022-02
1 15877U 26218EK  26037.47800926  .00000000  00000+0  00000-0 0  9990
2 15877  90.0000 252.0000 0000000   0.0000 342.0000 14.98994923    16
CTC1_L_00066022-03
1 15878U 24641ML  26037.47800926  .00000000  00000+0  00000-0 0  9999
2 15878  90.0000 252.0000 0000000   0.0000  72.0000 14.98994923    17
CTC1_L_00066022-04
1 15879U 25607FE  26037.47800926  .00000000  00000+0  00000-0 0  9993
2 15879  90.0000 252.0000 0000000   0.0000 162.0000 14.98994923    18
CTC1_L_00066023-01
1 15880U 24584KZ  26037.47800926  .00000000  00000+0  00000-0 0  9998
2 15880  90.0000 264.0000 0000000   0.0000 264.0000 14.98994923    16
CTC1_L_00066023-02
1 15881U 22012YL  26037.47800926  .00000000  00000+0  00000-0 0  9993
2 15881  90.0000 264.0000 0000000   0.0000 354.0000 14.98994923    17
CTC1_L_00066023-03
1 15882U 25569NG  26037.47800926  .00000000  00000+0  00000-0 0  9994
2 15882  90.0000 264.0000 0000000   0.0000  84.0000 14.98994923    18
CTC1_L_00066023-04
1 15883U 26927SM  26037.47800926  .00000000  00000+0  00000-0 0  9994
2 15883  90.0000 264.0000 0000000   0.0000 174.0000 14.98994923    19
CTC1_L_00066024-01
1 15884U 23875I   26037.47800926  .00000000  00000+0  00000-0 0  9994
2 15884  90.0000 276.0000 0000000   0.0000 276.0000 14.98994923    16
CTC1_L_00066024-02
1 15885U 23500EJ  26037.47800926  .00000000  00000+0  00000-0 0  9990
2 15885  90.0000 276.0000 0000000   0.0000   6.0000 14.98994923    18
CTC1_L_00066024-03
1 15886U 24550RT  26037.47800926  .00000000  00000+0  00000-0 0  9997
2 15886  90.0000 276.0000 0000000   0.0000  96.0000 14.98994923    18
CTC1_L_00066024-04
1 15887U 22645DF  26037.47800926  .00000000  00000+0  00000-0 0  9991
2 15887  90.0000 276.0000 0000000   0.0000 186.0000 14.98994923    19
CTC1_L_00066025-01
1 15888U 23345OT  26037.47800926  .00000000  00000+0  00000-0 0  9990
2 15888  90.0000 288.0000 0000000   0.0000 288.0000 14.98994923    16
CTC1_L_00066025-02
1 15889U 24080BN  26037.47800926  .00000000  00000+0  00000-0 0  9998
2 15889  90.0000 288.0000 0000000   0.0000  18.0000 14.98994923    18
CTC1_L_00066025-03
1 15890U 23929JJ  26037.47800926  .00000000  00000+0  00000-0 0  9991
2 15890  90.0000 288.0000 0000000   0.0000 108.0000 14.98994923    10
CTC1_L_00066025-04
1 15891U 25183NB  26037.47800926  .00000000  00000+0  00000-0 0  9996
2 15891  90.0000 288.0000 0000000   0.0000 198.0000 14.98994923    10
CTC1_L_00066026-01
1 15892U 24819GS  26037.47800926  .00000000  00000+0  00000-0 0  9992
2 15892  90.0000 300.0000 0000000   0.0000 300.0000 14.98994923    11
CTC1_L_00066026-02
1 15893U 23907JQ  26037.47800926  .00000000  00000+0  00000-0 0  9990
2 15893  90.0000 300.0000 0000000   0.0000  30.0000 14.98994923    12
CTC1_L_00066026-03
1 15894U 24726TJ  26037.47800926  .00000000  00000+0  00000-0 0  9991
2 15894  90.0000 300.0000 0000000   0.0000 120.0000 14.98994923    13
CTC1_L_00066026-04
1 15895U 23524IL  26037.47800926  .00000000  00000+0  00000-0 0  9997
2 15895  90.0000 300.0000 0000000   0.0000 210.0000 14.98994923    14
CTC1_L_00066027-01
1 15896U 25384FN  26037.47800926  .00000000  00000+0  00000-0 0  9994
2 15896  90.0000 312.0000 0000000   0.0000 312.0000 14.98994923    11
CTC1_L_00066027-02
1 15897U 26563FI  26037.47800926  .00000000  00000+0  00000-0 0  9995
2 15897  90.0000 312.0000 0000000   0.0000  42.0000 14.98994923    12
CTC1_L_00066027-03
1 15898U 23706CO  26037.47800926  .00000000  00000+0  00000-0 0  9992
2 15898  90.0000 312.0000 0000000   0.0000 132.0000 14.98994923    13
CTC1_L_00066027-04
1 15899U 23479RR  26037.47800926  .00000000  00000+0  00000-0 0  9990
2 15899  90.0000 312.0000 0000000   0.0000 222.0000 14.98994923    14
CTC1_L_00066028-01
1 15900U 24789QH  26037.47800926  .00000000  00000+0  00000-0 0  9998
2 15900  90.0000 324.0000 0000000   0.0000 324.0000 14.98994923    13
CTC1_L_00066028-02
1 15901U 25296HV  26037.47800926  .00000000  00000+0  00000-0 0  9993
2 15901  90.0000 324.0000 0000000   0.0000  54.0000 14.98994923    14
CTC1_L_00066028-03
1 15902U 25369MM  26037.47800926  .00000000  00000+0  00000-0 0  9995
2 15902  90.0000 324.0000 0000000   0.0000 144.0000 14.98994923    15
CTC1_L_00066028-04
1 15903U 23686ZB  26037.47800926  .00000000  00000+0  00000-0 0  9996
2 15903  90.0000 324.0000 0000000   0.0000 234.0000 14.98994923    16
CTC1_L_00066029-01
1 15904U 23785VE  26037.47800926  .00000000  00000+0  00000-0 0  9997
2 15904  90.0000 336.0000 0000000   0.0000 336.0000 14.98994923    13
CTC1_L_00066029-02
1 15905U 22940VA  26037.47800926  .00000000  00000+0  00000-0 0  9990
2 15905  90.0000 336.0000 0000000   0.0000  66.0000 14.98994923    14
CTC1_L_00066029-03
1 15906U 23351WX  26037.47800926  .00000000  00000+0  00000-0 0  9998
2 15906  90.0000 336.0000 0000000   0.0000 156.0000 14.98994923    15
CTC1_L_00066029-04
1 15907U 26484II  26037.47800926  .00000000  00000+0  00000-0 0  9999
2 15907  90.0000 336.0000 0000000   0.0000 246.0000 14.98994923    16
CTC1_L_00066030-01
1 15908U 25006GL  26037.47800926  .00000000  00000+0  00000-0 0  9999
2 15908  90.0000 348.0000 0000000   0.0000 348.0000 14.98994923    13
CTC1_L_00066030-02
1 15909U 22581AY  26037.47800926  .00000000  00000+0  00000-0 0  9995
2 15909  90.0000 348.0000 0000000   0.0000  78.0000 14.98994923    14
CTC1_L_00066030-03
1 15910U 24554AS  26037.47800926  .00000000  00000+0  00000-0 0  9999
2 15910  90.0000 348.0000 0000000   0.0000 168.0000 14.98994923    16
CTC1_L_00066030-04
1 15911U 25704OM  26037.47800926  .00000000  00000+0  00000-0 0  9998
2 15911  90.0000 348.0000 0000000   0.0000 258.0000 14.98994923    17
